OBJECT_NAME,OBJECT_ID,EPOCH,MEAN_MOTION,ECCENTRICITY,INCLINATION,RA_OF_ASC_NODE,ARG_OF_PERICENTER,MEAN_ANOMALY,EPHEMERIS_TYPE,CLASSIFICATION_TYPE,NORAD_CAT_ID,ELEMENT_SET_NO,REV_AT_EPOCH,BSTAR,MEAN_MOTION_DOT,MEAN_MOTION_DDOT
ONEWEB-0309,2021-075W,2026-07-20T19:18:44.606016,13.17647366,.0002322,87.9153,359.1755,90.4854,269.6544,0,U,49095,999,23800,.65331966E-4,.38E-6,0
ONEWEB-0310,2021-075X,2026-07-20T22:22:42.976704,13.12442314,.00018753,87.8972,343.9699,97.0409,263.0932,0,U,49096,999,23961,.85767819E-3,.321E-5,0
ONEWEB-0311,2021-075Y,2026-07-20T21:17:49.476480,13.17648137,.00015829,87.9153,359.1590,82.0375,278.0936,0,U,49097,999,23806,.98071495E-4,.51E-6,0
ONEWEB-0312,2021-075Z,2026-07-20T21:39:42.016896,13.17648984,.00019359,87.9152,359.1660,84.7919,275.3434,0,U,49098,999,23804,.12928206E-3,.63E-6,0
ONEWEB-0313,2021-075AA,2026-07-20T21:46:46.489728,13.17647840,.00018173,87.9150,359.1699,90.9075,269.2265,0,U,49099,999,23803,-.30811848E-3,-.107E-5,0
ONEWEB-0314,2021-075AB,2026-07-20T20:58:22.102752,13.17647264,.00019853,87.9161,359.1535,82.6220,277.5137,0,U,49100,999,23800,-.15474346E-4,.7E-7,0
ONEWEB-0315,2021-075AC,2026-07-20T21:43:41.226528,13.12443654,.00015236,87.8978,343.9424,89.7148,270.4155,0,U,49101,999,23959,.60887286E-4,.35E-6,0
ONEWEB-0316,2021-075AD,2026-07-20T20:21:17.248320,13.18686326,.00019786,87.9197,328.7631,99.2493,260.8863,0,U,49102,999,24164,.11352711E-3,.58E-6,0
ONEWEB-0317,2021-075AE,2026-07-20T21:48:34.146720,13.12443730,.00025424,87.8973,343.9650,103.8822,256.2590,0,U,49103,999,23961,.37115003E-3,.146E-5,0
ONEWEB-0318,2021-075AF,2026-07-20T20:16:13.928160,13.18686736,.00017756,87.9200,328.7661,94.8114,265.3221,0,U,49104,999,24160,.53123916E-4,.34E-6,0
ONEWEB-0319,2021-075AG,2026-07-20T21:20:15.228960,13.17648040,.00013978,87.9152,359.1639,85.0728,275.0563,0,U,49105,999,23804,-.59952882E-4,-.1E-6,0
ONEWEB-0323,2021-075AH,2026-07-20T21:21:43.434720,13.12443014,.00015101,87.8978,343.9506,82.1866,277.9434,0,U,49106,999,23897,-.12201527E-2,-.426E-5,0
ONEWEB-0329,2021-075AJ,2026-07-20T21:32:23.469504,13.17647822,.00018929,87.9156,359.1629,88.6571,271.4777,0,U,49107,999,23802,-.18861962E-3,-.6E-6,0
ONEWEB-0330,2021-075AK,2026-07-20T21:37:26.948640,13.17646789,.00019602,87.9155,359.1738,89.1927,270.9429,0,U,49108,999,23806,.35710942E-4,.27E-6,0
ONEWEB-0292,2021-083A,2026-07-20T20:03:55.119168,13.13470142,.00018081,87.8980,313.5421,99.0673,261.0660,0,U,49186,999,23534,.71097484E-3,.272E-5,0
ONEWEB-0303,2021-083B,2026-07-20T22:00:38.259072,13.18684287,.00017444,87.9199,328.7499,95.6883,264.4448,0,U,49187,999,23442,.11239063E-3,.57E-6,0
ONEWEB-0306,2021-083C,2026-07-20T21:46:04.748160,13.18685163,.00021775,87.9203,328.7412,100.2908,259.8470,0,U,49188,999,23446,-.24559406E-3,-.84E-6,0
ONEWEB-0307,2021-083D,2026-07-20T19:55:23.024640,13.13469249,.00018897,87.8980,313.5412,96.7544,263.3800,0,U,49189,999,23534,.66952565E-3,.257E-5,0
ONEWEB-0320,2021-083E,2026-07-20T20:25:55.790688,13.18684234,.00019701,87.9192,328.7668,99.5340,260.6015,0,U,49190,999,23441,.502224E-5,.15E-6,0
ONEWEB-0321,2021-083F,2026-07-20T21:54:27.031968,13.20770712,.00021741,87.9176,267.7141,102.9009,257.2367,0,U,49191,999,24128,.5263391E-4,.34E-6,0
ONEWEB-0322,2021-083G,2026-07-20T19:49:17.877504,13.13470860,.00021509,87.8979,313.5417,111.5282,248.6076,0,U,49192,999,23533,.48927361E-3,.191E-5,0
ONEWEB-0324,2021-083H,2026-07-20T21:36:21.826368,13.18686266,.00020677,87.9207,328.7481,95.4082,264.7286,0,U,49193,999,23444,-.33424507E-3,-.119E-5,0
ONEWEB-0325,2021-083J,2026-07-20T21:41:12.075936,13.18687620,.00018488,87.9193,328.7523,100.5545,259.5795,0,U,49194,999,23445,.29206516E-4,.24E-6,0
ONEWEB-0326,2021-083K,2026-07-20T22:03:17.148672,13.18686133,.00016461,87.9202,328.7500,95.3888,264.7432,0,U,49195,999,23444,.18025529E-4,.2E-6,0
ONEWEB-0327,2021-083L,2026-07-20T20:13:37.285824,13.18685934,.0001492,87.9192,328.7666,99.5707,260.5593,0,U,49196,999,23445,-.14778798E-4,.7E-7,0
ONEWEB-0328,2021-083M,2026-07-20T19:34:40.171008,13.13470406,.00020487,87.8989,313.5200,97.3829,262.7533,0,U,49197,999,23531,-.27336688E-3,-.87E-6,0
ONEWEB-0331,2021-083N,2026-07-20T21:53:21.669504,13.18686009,.00016361,87.9203,328.7451,90.9267,269.2052,0,U,49198,999,23445,-.2997608E-5,.12E-6,0
ONEWEB-0333,2021-083P,2026-07-20T19:27:21.230496,13.13470320,.00019021,87.8979,313.5445,101.8676,258.2667,0,U,49199,999,23532,-.49111989E-3,-.167E-5,0
ONEWEB-0334,2021-083Q,2026-07-20T22:15:03.228480,13.20769542,.00025978,87.9179,267.7216,113.0161,247.1247,0,U,49200,999,24124,.8595251E-5,.16E-6,0
ONEWEB-0335,2021-083R,2026-07-20T19:20:02.526720,13.13469053,.00018149,87.8980,313.5426,96.5463,263.5872,0,U,49201,999,23533,-.79655322E-3,-.278E-5,0
